{"type": "FeatureCollection", "features": [ {"type": "Feature", "properties": {"norad_id": 32384, "name": "GPS BIIRM-5 (PRN 29)", "group": "gps-ops", "lat": -53.35695642627745, "lon": 170.92467706086154, "alt_km": 20194.150525440047, "timestamp": "2025-12-07T22:37:43.338473+00:00", "meta": {"OBJECT_NAME": "GPS BIIRM-5 (PRN 29)", "OBJECT_ID": "2007-062A", "EPOCH": "2025-12-07T07:51:30.252672", "MEAN_MOTION": 2.00576914, "ECCENTRICITY": 0.00322165, "INCLINATION": 55.187, "RA_OF_ASC_NODE": 281.863, "ARG_OF_PERICENTER": 162.6337, "MEAN_ANOMALY": 10.2823, "EPHEMERIS_TYPE": 0, "CLASSIFICATION_TYPE": "U", "NORAD_CAT_ID": 32384, "ELEMENT_SET_NO": 999, "REV_AT_EPOCH": 13166, "BSTAR": 0, "MEAN_MOTION_DOT": -4e-07, "MEAN_MOTION_DDOT": 0}, "tle": {"line1": "1 32384U 07062A   25341.32743348 -.00000040  00000+0  00000+0 0  9997", "line2": "2 32384  55.1870 281.8630 0032216 162.6337  10.2823  2.00576914131665"}}, "geometry": {"type": "Point", "coordinates": [170.92467706086154, -53.35695642627745]}}, {"type": "Feature", "properties": {"norad_id": 32711, "name": "GPS BIIRM-6 (PRN 07)", "group": "gps-ops", "lat": 0.1459748018381654, "lon": -22.547009802135207, "alt_km": 19947.69204493312, "timestamp": "2025-12-07T22:37:43.338485+00:00", "meta": {"OBJECT_NAME": "GPS BIIRM-6 (PRN 07)", "OBJECT_ID": "2008-012A", "EPOCH": "2025-12-06T16:34:57.264384", "MEAN_MOTION": 2.00565269, "ECCENTRICITY": 0.02022029, "INCLINATION": 54.4762, "RA_OF_ASC_NODE": 157.6144, "ARG_OF_PERICENTER": 244.8815, "MEAN_ANOMALY": 113.0202, "EPHEMERIS_TYPE": 0, "CLASSIFICATION_TYPE": "U", "NORAD_CAT_ID": 32711, "ELEMENT_SET_NO": 999, "REV_AT_EPOCH": 12989, "BSTAR": 0, "MEAN_MOTION_DOT": 6.1e-07, "MEAN_MOTION_DDOT": 0}, "tle": {"line1": "1 32711U 08012A   25340.69094056  .00000061  00000+0  00000+0 0  9993", "line2": "2 32711  54.4762 157.6144 0202202 244.8815 113.0202  2.00565269129895"}}, "geometry": {"type": "Point", "coordinates": [-22.547009802135207, 0.1459748018381654]}}, {"type": "Feature", "properties": {"norad_id": 35752, "name": "GPS BIIRM-8 (PRN 05)", "group": "gps-ops", "lat": -18.433519154274364, "lon": -132.06250291545786, "alt_km": 20254.08732916801, "timestamp": "2025-12-07T22:37:43.338497+00:00", "meta": {"OBJECT_NAME": "GPS BIIRM-8 (PRN 05)", "OBJECT_ID": "2009-043A", "EPOCH": "2025-12-07T06:57:18.338976", "MEAN_MOTION": 2.00565889, "ECCENTRICITY": 0.00519498, "INCLINATION": 56.0873, "RA_OF_ASC_NODE": 34.9981, "ARG_OF_PERICENTER": 82.001, "MEAN_ANOMALY": 8.335, "EPHEMERIS_TYPE": 0, "CLASSIFICATION_TYPE": "U", "NORAD_CAT_ID": 35752, "ELEMENT_SET_NO": 999, "REV_AT_EPOCH": 11951, "BSTAR": 0, "MEAN_MOTION_DOT": -7.6e-07, "MEAN_MOTION_DDOT": 0}, "tle": {"line1": "1 35752U 09043A   25341.28979559 -.00000076  00000+0  00000+0 0  9999", "line2": "2 35752  56.0873  34.9981 0051949  82.0010   8.3350  2.00565889119515"}}, "geometry": {"type": "Point", "coordinates": [-132.06250291545786, -18.433519154274364]}}, {"type": "Feature", "properties": {"norad_id": 36585, "name": "GPS BIIF-1  (PRN 25)", "group": "gps-ops", "lat": -32.204456551596195, "lon": -170.6333822060262, "alt_km": 20275.39948822753, "timestamp": "2025-12-07T22:37:43.338509+00:00", "meta": {"OBJECT_NAME": "GPS BIIF-1  (PRN 25)", "OBJECT_ID": "2010-022A", "EPOCH": "2025-12-07T05:49:32.737728", "MEAN_MOTION": 2.00552848, "ECCENTRICITY": 0.01258847, "INCLINATION": 54.3011, "RA_OF_ASC_NODE": 216.2957, "ARG_OF_PERICENTER": 65.0144, "MEAN_ANOMALY": 109.9417, "EPHEMERIS_TYPE": 0, "CLASSIFICATION_TYPE": "U", "NORAD_CAT_ID": 36585, "ELEMENT_SET_NO": 999, "REV_AT_EPOCH": 11374, "BSTAR": 0, "MEAN_MOTION_DOT": 3.7e-07, "MEAN_MOTION_DDOT": 0}, "tle": {"line1": "1 36585U 10022A   25341.24274002  .00000037  00000+0  00000+0 0  9996", "line2": "2 36585  54.3011 216.2957 0125884  65.0144 109.9417  2.00552848113744"}}, "geometry": {"type": "Point", "coordinates": [-170.6333822060262, -32.204456551596195]}}, {"type": "Feature", "properties": {"norad_id": 38833, "name": "GPS BIIF-3  (PRN 24)", "group": "gps-ops", "lat": 42.70068944874566, "lon": -165.56763887522686, "alt_km": 19713.42228893816, "timestamp": "2025-12-07T22:37:43.338521+00:00", "meta": {"OBJECT_NAME": "GPS BIIF-3  (PRN 24)", "OBJECT_ID": "2012-053A", "EPOCH": "2025-12-06T20:50:20.740704", "MEAN_MOTION": 2.0056489, "ECCENTRICITY": 0.01756175, "INCLINATION": 53.5566, "RA_OF_ASC_NODE": 151.4791, "ARG_OF_PERICENTER": 63.9122, "MEAN_ANOMALY": 297.8848, "EPHEMERIS_TYPE": 0, "CLASSIFICATION_TYPE": "U", "NORAD_CAT_ID": 38833, "ELEMENT_SET_NO": 999, "REV_AT_EPOCH": 9558, "BSTAR": 0, "MEAN_MOTION_DOT": 5.4e-07, "MEAN_MOTION_DDOT": 0}, "tle": {"line1": "1 38833U 12053A   25340.86829561  .00000054  00000+0  00000+0 0  9992", "line2": "2 38833  53.5566 151.4791 0175617  63.9122 297.8848  2.00564890 95582"}}, "geometry": {"type": "Point", "coordinates": [-165.56763887522686, 42.70068944874566]}}, {"type": "Feature", "properties": {"norad_id": 39166, "name": "GPS BIIF-4  (PRN 27)", "group": "gps-ops", "lat": 18.711139441059814, "lon": 82.86001160194326, "alt_km": 20289.772845004158, "timestamp": "2025-12-07T22:37:43.338533+00:00", "meta": {"OBJECT_NAME": "GPS BIIF-4  (PRN 27)", "OBJECT_ID": "2013-023A", "EPOCH": "2025-12-07T05:32:23.727552", "MEAN_MOTION": 2.00565061, "ECCENTRICITY": 0.01375526, "INCLINATION": 54.6569, "RA_OF_ASC_NODE": 276.7922, "ARG_OF_PERICENTER": 48.5552, "MEAN_ANOMALY": 312.629, "EPHEMERIS_TYPE": 0, "CLASSIFICATION_TYPE": "U", "NORAD_CAT_ID": 39166, "ELEMENT_SET_NO": 999, "REV_AT_EPOCH": 9203, "BSTAR": 0, "MEAN_MOTION_DOT": -3.4e-07, "MEAN_MOTION_DDOT": 0}, "tle": {"line1": "1 39166U 13023A   25341.23083018 -.00000034  00000+0  00000+0 0  9990", "line2": "2 39166  54.6569 276.7922 0137552  48.5552 312.6290  2.00565061 92031"}}, "geometry": {"type": "Point", "coordinates": [82.86001160194326, 18.711139441059814]}}, {"type": "Feature", "properties": {"norad_id": 39533, "name": "GPS BIIF-5  (PRN 30)", "group": "gps-ops", "lat": 18.467078742044805, "lon": -37.140082617933714, "alt_km": 20104.70613818034, "timestamp": "2025-12-07T22:37:43.338545+00:00", "meta": {"OBJECT_NAME": "GPS BIIF-5  (PRN 30)", "OBJECT_ID": "2014-008A", "EPOCH": "2025-12-06T17:26:15.806112", "MEAN_MOTION": 2.00574018, "ECCENTRICITY": 0.00790593, "INCLINATION": 53.6301, "RA_OF_ASC_NODE": 157.1699, "ARG_OF_PERICENTER": 226.4148, "MEAN_ANOMALY": 132.9387, "EPHEMERIS_TYPE": 0, "CLASSIFICATION_TYPE": "U", "NORAD_CAT_ID": 39533, "ELEMENT_SET_NO": 999, "REV_AT_EPOCH": 8582, "BSTAR": 0, "MEAN_MOTION_DOT": 5.9e-07, "MEAN_MOTION_DDOT": 0}, "tle": {"line1": "1 39533U 14008A   25340.72657183  .00000059  00000+0  00000+0 0  9991", "line2": "2 39533  53.6301 157.1699 0079059 226.4148 132.9387  2.00574018 85821"}}, "geometry": {"type": "Point", "coordinates": [-37.140082617933714, 18.467078742044805]}}, {"type": "Feature", "properties": {"norad_id": 39741, "name": "GPS BIIF-6  (PRN 06)", "group": "gps-ops", "lat": -37.12141622267709, "lon": -51.0208890841625, "alt_km": 20083.57949457504, "timestamp": "2025-12-07T22:37:43.338556+00:00", "meta": {"OBJECT_NAME": "GPS BIIF-6  (PRN 06)", "OBJECT_ID": "2014-026A", "EPOCH": "2025-12-07T00:13:30.638496", "MEAN_MOTION": 2.00561616, "ECCENTRICITY": 0.00390271, "INCLINATION": 56.5858, "RA_OF_ASC_NODE": 338.9993, "ARG_OF_PERICENTER": 318.3547, "MEAN_ANOMALY": 41.3608, "EPHEMERIS_TYPE": 0, "CLASSIFICATION_TYPE": "U", "NORAD_CAT_ID": 39741, "ELEMENT_SET_NO": 999, "REV_AT_EPOCH": 8468, "BSTAR": 0, "MEAN_MOTION_DOT": -8e-07, "MEAN_MOTION_DDOT": 0}, "tle": {"line1": "1 39741U 14026A   25341.00938239 -.00000080  00000+0  00000+0 0  9993", "line2": "2 39741  56.5858 338.9993 0039027 318.3547  41.3608  2.00561616 84684"}}, "geometry": {"type": "Point", "coordinates": [-51.0208890841625, -37.12141622267709]}}, {"type": "Feature", "properties": {"norad_id": 40105, "name": "GPS BIIF-7  (PRN 09)", "group": "gps-ops", "lat": -51.0653833332905, "lon": -24.712966229333166, "alt_km": 20244.730727230955, "timestamp": "2025-12-07T22:37:43.338568+00:00", "meta": {"OBJECT_NAME": "GPS BIIF-7  (PRN 09)", "OBJECT_ID": "2014-045A", "EPOCH": "2025-12-05T14:26:16.975968", "MEAN_MOTION": 2.00571979, "ECCENTRICITY": 0.00328896, "INCLINATION": 55.2248, "RA_OF_ASC_NODE": 96.1837, "ARG_OF_PERICENTER": 119.6741, "MEAN_ANOMALY": 240.6258, "EPHEMERIS_TYPE": 0, "CLASSIFICATION_TYPE": "U", "NORAD_CAT_ID": 40105, "ELEMENT_SET_NO": 999, "REV_AT_EPOCH": 8219, "BSTAR": 0, "MEAN_MOTION_DOT": -1.2e-07, "MEAN_MOTION_DDOT": 0}, "tle": {"line1": "1 40105U 14045A   25339.60158537 -.00000012  00000+0  00000+0 0  9993", "line2": "2 40105  55.2248  96.1837 0032889 119.6741 240.6258  2.00571979 82198"}}, "geometry": {"type": "Point", "coordinates": [-24.712966229333166, -51.0653833332905]}}, {"type": "Feature", "properties": {"norad_id": 40294, "name": "GPS BIIF-8  (PRN 03)", "group": "gps-ops", "lat": -17.551036648727447, "lon": 26.433639930375698, "alt_km": 20184.760832137497, "timestamp": "2025-12-07T22:37:43.338580+00:00", "meta": {"OBJECT_NAME": "GPS BIIF-8  (PRN 03)", "OBJECT_ID": "2014-068A", "EPOCH": "2025-12-05T23:27:53.798400", "MEAN_MOTION": 2.00564264, "ECCENTRICITY": 0.00608121, "INCLINATION": 56.8528, "RA_OF_ASC_NODE": 38.4077, "ARG_OF_PERICENTER": 69.3337, "MEAN_ANOMALY": 291.3749, "EPHEMERIS_TYPE": 0, "CLASSIFICATION_TYPE": "U", "NORAD_CAT_ID": 40294, "ELEMENT_SET_NO": 999, "REV_AT_EPOCH": 8133, "BSTAR": 0, "MEAN_MOTION_DOT": -6.8e-07, "MEAN_MOTION_DDOT": 0}, "tle": {"line1": "1 40294U 14068A   25339.97770600 -.00000068  00000+0  00000+0 0  9999", "line2": "2 40294  56.8528  38.4077 0060812  69.3337 291.3749  2.00564264 81331"}}, "geometry": {"type": "Point", "coordinates": [26.433639930375698, -17.551036648727447]}}]}